satname,norad_id,inclination_deg,eccentricity,mean_motion_rev_per_day,perigee_km,apogee_km,l1,l2
STARLINK-1420,45695,53.0468,0.0005325,15.6691023,364.1583627160717,371.3427329545166,1 45695U 20035AQ  26148.82146329  .00067501  00000+0  62460-3 0  9994,2 45695  53.0468 351.3245 0005325 103.0709 257.0901 15.66910230331874
STARLINK-1422,45696,53.1576,0.000392,15.34004317,461.1974757700191,466.56161674228315,1 45696U 20035AR  26148.91505607  .00050028  00000+0  15004-2 0  9990,2 45696  53.1576  36.2192 0003920 125.0850 235.0521 15.34004317331268
STARLINK-1351,45697,53.0437,0.000483,15.65348575,368.9760184762208,375.4968792278114,1 45697U 20035AS  26148.95964404  .00064759  00000+0  63844-3 0  9991,2 45697  53.0437 350.9546 0004830 115.6081 244.5433 15.65348575331892
STARLINK-1400,45700,53.0431,0.0002705,15.63851049,374.7180071425928,378.37229018501966,1 45700U 20035AV  26149.60459528  .00110598  00000+0  11468-2 0  9992,2 45700  53.0431 350.2645 0002705  68.2468 291.8833 15.63851049331954
STARLINK-1403,45701,53.1574,0.0002623,15.32961249,465.1873806511958,468.7783305274379,1 45701U 20035AW  26149.05160831  .00038727  00000+0  12048-2 0  9996,2 45701  53.1574  23.0487 0002623 137.5864 222.5341 15.32961249331452
STARLINK-1407,45703,53.0283,0.0004883,15.72477839,348.5316378763637,355.10411180713345,1 45703U 20035AY  26149.51661636  .00077591  00000+0  56899-3 0  9993,2 45703  53.0283 277.8583 0004883   8.1985 351.9111 15.72477839332963
STARLINK-1411,45706,53.0319,0.0006008,15.86121242,309.14931499478644,317.1895888274021,1 45706U 20035BB  26149.58337963  .00306094  00000+0  11697-2 0  9995,2 45706  53.0319 299.9411 0006008 306.2343 291.0458 15.86121242  5944
STARLINK-1423,45710,53.0451,0.0006597,15.67864122,360.5656715775458,369.4625851763258,1 45710U 20035BF  26148.85819683  .00070517  00000+0  62707-3 0  9990,2 45710  53.0451 350.6552 0006597  73.6829 286.4912 15.67864122331871
STARLINK-1433,45711,53.0436,0.0006338,15.67567259,361.5910897892745,370.1397872803609,1 45711U 20035BG  26149.54230905  .00062186  00000+0  56092-3 0  9995,2 45711  53.0436 345.8547 0006338  81.1322 279.0411 15.67567259332009
STARLINK-1434,45712,53.0506,0.0002943,15.33357043,463.79071303992987,467.81905723352156,1 45712U 20035BH  26148.83447058  .00030985  00000+0  95517-3 0  9993,2 45712  53.0506   6.7734 0002943  67.3864 292.7448 15.33357043331668
STARLINK-1465,45731,53.0437,0.0001528,15.64954594,372.3377194123441,374.40097975277604,1 45731U 20038B   26149.35256769  .00052961  00000+0  53237-3 0  9993,2 45731  53.0437 192.2424 0001528  66.5851 293.5324 15.64954594328941
STARLINK-1471,45735,53.0444,0.0003198,15.529244,406.0225933204765,410.3631298999626,1 45735U 20038F   26148.93355935  .00032909  00000+0  52523-3 0  9992,2 45735  53.0444 116.3329 0003198  88.7559 271.3817 15.52924400329986
STARLINK-1480,45741,53.0466,0.0006142,15.64230207,371.305525417597,379.6016360869935,1 45741U 20038M   26149.32888275  .00099672  00000+0  10195-2 0  9999,2 45741  53.0466 185.9614 0006142   1.5739 358.5293 15.64230207329042
STARLINK-1500,45744,53.0338,0.0002151,15.38694541,448.49993090798034,451.43738196137747,1 45744U 20038Q   26149.31472774  .00026608  00000+0  69340-3 0  9990,2 45744  53.0338 173.3427 0002151  97.2020 262.9228 15.38694541329218
STARLINK-1504,45746,53.0193,0.0003706,15.58291278,390.0928978261145,395.1113696720504,1 45746U 20038S   26149.17445287  .00044195  00000+0  57608-3 0  9990,2 45746  53.0193 112.3097 0003706  72.5072 287.6344 15.58291278330043
STARLINK-1506,45747,53.0735,0.0002928,15.28165568,479.2878126530486,483.30469676700704,1 45747U 20038T   26149.34717107  .00019805  00000+0  72249-3 0  9991,2 45747  53.0735 188.6593 0002928 129.5776 230.5482 15.28165568329016
STARLINK-1464,45751,53.0446,0.0004294,15.5358446,403.35732884311165,409.18377805001273,1 45751U 20038X   26149.47927452  .00036994  00000+0  57524-3 0  9993,2 45751  53.0446 177.5562 0004294  10.4271 349.6827 15.53584460329175
STARLINK-1477,45754,53.0491,0.0001266,15.1840104,509.80044792545687,511.5446945088888,1 45754U 20038AA  26149.43470166  .00027232  00000+0  13181-2 0  9992,2 45754  53.0491 204.7788 0001266 335.4843  24.6091 15.18401040328784
STARLINK-1478,45755,53.0441,0.0004282,15.67263536,363.8485442370993,369.62485407305485,1 45755U 20038AB  26149.32567235  .00071103  00000+0  64819-3 0  9996,2 45755  53.0441 164.0186 0004282  53.8367 306.3044 15.67263536329333
STARLINK-1493,45759,53.0456,0.0007453,15.636149,372.1904556843083,382.2599986201012,1 45759U 20038AF  26149.51953351  .00110040  00000+0  11506-2 0  9997,2 45759  53.0456 172.5174 0007453 359.1536   0.9464 15.63614900329230
STARLINK-1494,45760,53.0374,0.0003222,16.007686,270.14630557765577,274.43184013900554,1 45760U 20038AG  26149.28201046  .00425638  89585-4  78055-3 0  9995,2 45760  53.0374 104.2954 0003222  70.4679 289.6698 16.00768600330179
STARLINK-1502,45764,53.0444,0.0006699,15.59858526,383.5334851500129,392.59884415001034,1 45764U 20038AL  26149.48593149  .00068540  00000+0  83555-3 0  9995,2 45764  53.0444 176.2424 0006699 335.2968  24.7722 15.59858526329192
STARLINK-1470,45772,53.0431,0.0005204,15.34453734,458.98364594482337,466.10342624679197,1 45772U 20038AU  26149.40356894  .00076137  00000+0  22371-2 0  9999,2 45772  53.0431 157.7170 0005204   8.5626 351.5463 15.34453734329447
STARLINK-1482,45773,53.156,0.0005089,15.36849177,451.9558350888692,458.9110430817709,1 45773U 20038AV  26149.36388231  .00051510  00000+0  14100-2 0  9994,2 45773  53.1560 174.3749 0005089   1.0298 359.0715 15.36849177329224
STARLINK-1496,45780,53.0446,0.0007935,15.60905005,379.67506310632325,390.4082276165118,1 45780U 20038BC  26149.23868747  .00049961  00000+0  58795-3 0  9999,2 45780  53.0446 148.3785 0007935  44.5346 315.6303 15.60905005329549
STARLINK-1513,45786,53.157,0.0001293,15.31695858,469.8667809479748,471.63790373190477,1 45786U 20038BJ  26149.31072447  .00000459  00000+0  26566-4 0  9999,2 45786  53.1570 176.2011 0001293  87.6140 272.5010 15.31695858329194
STARLINK-1522,46027,53.0609,0.0003092,15.12579859,526.2002144501866,530.4711771652737,1 46027U 20055A   26149.31499157  .00027455  00000+0  15663-2 0  9997,2 46027  53.0609 122.0664 0003092  24.0856 336.0280 15.12579859321071
STARLINK-1523,46028,53.1587,0.0001393,15.30191322,474.286304932878,476.1956560382414,1 46028U 20055B   26149.18600887  .00001023  00000+0  46662-4 0  9995,2 46028  53.1587 112.8071 0001393  95.6524 264.4636 15.30191322321226
STARLINK-1526,46029,53.16,0.0001279,15.30184854,474.3837435044834,476.1368425320379,1 46029U 20055C   26149.17969007  .00000093  00000+0  15280-4 0  9995,2 46029  53.1600 112.8490 0001279  75.0553 285.0589 15.30184854321212
STARLINK-1555,46032,53.1595,0.000173,15.30193559,474.048667916687,476.41993438688496,1 46032U 20055F   26148.64136601  .00005934  00000+0  21237-3 0  9993,2 46032  53.1595 115.3273 0001730  83.7011 276.4187 15.30193559321134
STARLINK-1556,46033,53.1592,0.0001345,15.30189146,474.32569748619244,476.169257910693,1 46033U 20055G   26149.27765493  .00004577  00000+0  16662-3 0  9999,2 46033  53.1592 112.3907 0001345  79.5854 280.5298 15.30189146321207
STARLINK-1557,46034,53.1605,0.000119,15.30187438,474.43702418388057,476.06813090333526,1 46034U 20055H   26149.28082470  .00000696  00000+0  35640-4 0  9994,2 46034  53.1605 112.3724 0001190  88.6180 271.4957 15.30187438321204
STARLINK-1558,46035,53.1619,0.0001184,15.30189903,474.43377695256277,476.05665786164445,1 46035U 20055J   26149.28818749 -.00000916  00000+0 -18819-4 0  9997,2 46035  53.1619 112.3385 0001184  95.0900 265.0236 15.30189903321239
STARLINK-1560,46036,53.1592,0.0001272,15.30190543,474.3715564871336,476.11505643709825,1 46036U 20055K   26149.27450208 -.00000796  00000+0 -14773-4 0  9990,2 46036  53.1592 112.4103 0001272  89.9405 270.1742 15.30190543321230
STARLINK-1569,46039,53.1604,0.000124,15.30214746,474.3212306778123,476.02085107195035,1 46039U 20055N   26148.31161706  .00004037  00000+0  14829-3 0  9990,2 46039  53.1604 116.8651 0001240  85.1537 274.9606 15.30214746321077
STARLINK-1582,46043,53.1578,0.0001184,15.31713355,469.8892826321444,471.51108727754126,1 46043U 20055S   26149.18748901  .00004375  00000+0  15261-3 0  9995,2 46043  53.1578 112.3063 0001184 107.1255 252.9876 15.31713355321211
STARLINK-1591,46045,53.1579,0.0001516,15.30196896,474.18536784073876,476.26330699824393,1 46045U 20055U   26149.32401221  .00006741  00000+0  23954-3 0  9991,2 46045  53.1579 112.1646 0001516 102.9331 257.1839 15.30196896321216
STARLINK-1524,46047,53.16,0.0001207,15.31695254,469.9274816802763,471.5808040021584,1 46047U 20055W   26149.02632359  .00000558  00000+0  29763-4 0  9993,2 46047  53.1600 100.3540 0001207  95.6794 264.4345 15.31695254321376
STARLINK-1527,46048,53.1591,0.0001245,15.31702871,469.87875281701145,471.58412105780917,1 46048U 20055X   26149.28265970  .00007950  00000+0  26764-3 0  9993,2 46048  53.1591  99.1422 0001245  89.6279 270.4865 15.31702871321382
STARLINK-1540,46051,53.1604,0.0001024,15.31702464,470.03132592753263,471.4339744318895,1 46051U 20055AA  26149.26870803  .00002847  00000+0  10347-3 0  9992,2 46051  53.1604  99.4146 0001024  79.7383 280.3734 15.31702464321426
STARLINK-1541,46052,53.1585,0.0002225,15.80590851,327.27639291626747,330.2609659436139,1 46052U 20055AB  26149.58337963  .00143428  00000+0  72753-3 0  9993,2 46052  53.1585  85.1838 0002225 157.5833 126.0293 15.80590851  5956
STARLINK-1543,46053,53.1587,0.0001327,15.31697372,469.8389821512683,471.6566761849299,1 46053U 20055AC  26149.24071939  .00005815  00000+0  19902-3 0  9999,2 46053  53.1587  99.3514 0001327  81.8939 278.2213 15.31697372321411
STARLINK-1548,46054,53.1591,0.000124,15.31720645,469.82920112983265,471.52770736248567,1 46054U 20055AD  26148.27594206  .00005556  00000+0  19056-3 0  9991,2 46054  53.1591 103.9166 0001240  84.5131 275.6012 15.31720645321261
